{"fetched_at":"2026-03-29T16:36:15Z","count":15609,"tles":[{"name":"STARLINK-3526","line1":"1 51720U 22016G   26087.72930455  .00000277  00000+0  35526-4 0  9994","line2":"2 51720  53.2170 243.6189 0001322  93.4699 266.6444 15.08834196226294","category":"Starlink"}]}