{
  "norad_id": 51720,
  "name": "STARLINK-3526",
  "history": [
    {
      "epoch": "2026-03-28T17:30:11.913120Z",
      "apogee_km": 540.6756756597688,
      "perigee_km": 538.8465833943228,
      "latitude_deg": -2.8217475279096e-05,
      "longitude_deg": 154.92366979356208,
      "height_km": 540.712202341579,
      "semi_major_axis_km": 6917.898129527046,
      "eccentricity": 0.0001322,
      "inclination_deg": 53.217,
      "raan_deg": 243.6189,
      "arg_perigee_deg": 93.4699,
      "mean_anomaly_deg": 266.6444,
      "mean_motion_rev_day": 15.08834196
    }
  ]
}